IXPE                    
1 49954U 21121A   24183.91668981  .00008488  00000+0  62447-3 0  9997
2 49954   0.2312 284.4378 0009339 140.1195   5.5602 14.98386364  5793
